[
    {
        "Altitude(m)": 702986.9357896965,
        "Argument of Periapsis(deg)": 0.004556048474650827,
        "Eccentricity": 0.0,
        "Inclination(deg)": 45.0,
        "Latitude(deg)": 19.51454690227111,
        "Longitude(deg)": -170.93134305606299,
        "Mean Anomaly(deg)": 151.88598665899235,
        "RAAN(deg)": 129.99569922341672,
        "Satellite Name": "Constellation 1 581",
        "Satellite Number": 581,
        "Semi-Major Axis(m)": 7083131.272910544,
        "Time(s)": 76
    },
    {
        "Altitude(m)": 702983.82200301,
        "Argument of Periapsis(deg)": 0.004615996480896233,
        "Eccentricity": 0.0,
        "Inclination(deg)": 45.0,
        "Latitude(deg)": 19.474126450527805,
        "Longitude(deg)": -170.88724088042468,
        "Mean Anomaly(deg)": 151.9466877992422,
        "RAAN(deg)": 129.99564263425117,
        "Satellite Name": "Constellation 1 581",
        "Satellite Number": 581,
        "Semi-Major Axis(m)": 7083131.272910544,
        "Time(s)": 77
    },
    {
        "Altitude(m)": 702980.7225353086,
        "Argument of Periapsis(deg)": 0.004675944487141638,
        "Eccentricity": 0.0,
        "Inclination(deg)": 45.0,
        "Latitude(deg)": 19.43369302063737,
        "Longitude(deg)": -170.84316261932977,
        "Mean Anomaly(deg)": 152.0073889394922,
        "RAAN(deg)": 129.9955860450856,
        "Satellite Name": "Constellation 1 581",
        "Satellite Number": 581,
        "Semi-Major Axis(m)": 7083131.272910544,
        "Time(s)": 78
    },
    {
        "Altitude(m)": 702977.6374174238,
        "Argument of Periapsis(deg)": 0.004735892493387044,
        "Eccentricity": 0.0,
        "Inclination(deg)": 45.0,
        "Latitude(deg)": 19.393246647920158,
        "Longitude(deg)": -170.79910821498646,
        "Mean Anomaly(deg)": 152.06809007974203,
        "RAAN(deg)": 129.99552945592,
        "Satellite Name": "Constellation 1 581",
        "Satellite Number": 581,
        "Semi-Major Axis(m)": 7083131.272910544,
        "Time(s)": 79
    },
    {
        "Altitude(m)": 702974.5666801345,
        "Argument of Periapsis(deg)": 0.004795840499632449,
        "Eccentricity": 0.0,
        "Inclination(deg)": 45.0,
        "Latitude(deg)": 19.35278736764933,
        "Longitude(deg)": -170.75507760963174,
        "Mean Anomaly(deg)": 152.1287912199919,
        "RAAN(deg)": 129.99547286675443,
        "Satellite Name": "Constellation 1 581",
        "Satellite Number": 581,
        "Semi-Major Axis(m)": 7083131.272910544,
        "Time(s)": 80
    },
    {
        "Altitude(m)": 702971.5103541604,
        "Argument of Periapsis(deg)": 0.004855788505877855,
        "Eccentricity": 0.0,
        "Inclination(deg)": 45.0,
        "Latitude(deg)": 19.312315215051154,
        "Longitude(deg)": -170.71107074553194,
        "Mean Anomaly(deg)": 152.18949236024181,
        "RAAN(deg)": 129.99541627758887,
        "Satellite Name": "Constellation 1 581",
        "Satellite Number": 581,
        "Semi-Major Axis(m)": 7083131.272910544,
        "Time(s)": 81
    },
    {
        "Altitude(m)": 702968.4684701717,
        "Argument of Periapsis(deg)": 0.00491573651212326,
        "Eccentricity": 0.0,
        "Inclination(deg)": 45.0,
        "Latitude(deg)": 19.27183022530538,
        "Longitude(deg)": -170.66708773307963,
        "Mean Anomaly(deg)": 152.25019350049172,
        "RAAN(deg)": 129.9953596884233,
        "Satellite Name": "Constellation 1 581",
        "Satellite Number": 581,
        "Semi-Major Axis(m)": 7083131.272910544,
        "Time(s)": 82
    },
    {
        "Altitude(m)": 702965.4410587754,
        "Argument of Periapsis(deg)": 0.004975684518368666,
        "Eccentricity": 0.0,
        "Inclination(deg)": 45.0,
        "Latitude(deg)": 19.231332433544097,
        "Longitude(deg)": -170.62312817840544,
        "Mean Anomaly(deg)": 152.3108946407416,
        "RAAN(deg)": 129.99530309925774,
        "Satellite Name": "Constellation 1 581",
        "Satellite Number": 581,
        "Semi-Major Axis(m)": 7083131.272910544,
        "Time(s)": 83
    },
    {
        "Altitude(m)": 702962.4281505287,
        "Argument of Periapsis(deg)": 0.005035632524614072,
        "Eccentricity": 0.0,
        "Inclination(deg)": 45.0,
        "Latitude(deg)": 19.190821874853697,
        "Longitude(deg)": -170.5791921919606,
        "Mean Anomaly(deg)": 152.37159578099153,
        "RAAN(deg)": 129.99524651009216,
        "Satellite Name": "Constellation 1 581",
        "Satellite Number": 581,
        "Semi-Major Axis(m)": 7083131.272910544,
        "Time(s)": 84
    },
    {
        "Altitude(m)": 702959.4297759328,
        "Argument of Periapsis(deg)": 0.0050955805308594785,
        "Eccentricity": 0.0,
        "Inclination(deg)": 45.0,
        "Latitude(deg)": 19.15029858427394,
        "Longitude(deg)": -170.5352797161287,
        "Mean Anomaly(deg)": 152.4322969212414,
        "RAAN(deg)": 129.99518992092658,
        "Satellite Name": "Constellation 1 581",
        "Satellite Number": 581,
        "Semi-Major Axis(m)": 7083131.272910544,
        "Time(s)": 85
    },
    {
        "Altitude(m)": 702956.4459654253,
        "Argument of Periapsis(deg)": 0.005155528537104883,
        "Eccentricity": 0.0,
        "Inclination(deg)": 45.0,
        "Latitude(deg)": 19.109762596797914,
        "Longitude(deg)": -170.49139069332267,
        "Mean Anomaly(deg)": 152.49299806149133,
        "RAAN(deg)": 129.99513333176102,
        "Satellite Name": "Constellation 1 581",
        "Satellite Number": 581,
        "Semi-Major Axis(m)": 7083131.272910544,
        "Time(s)": 86
    },
    {
        "Altitude(m)": 702953.4767493978,
        "Argument of Periapsis(deg)": 0.0052154765433502885,
        "Eccentricity": 0.0,
        "Inclination(deg)": 45.0,
        "Latitude(deg)": 19.06921394737277,
        "Longitude(deg)": -170.44752506598508,
        "Mean Anomaly(deg)": 152.5536992017412,
        "RAAN(deg)": 129.99507674259544,
        "Satellite Name": "Constellation 1 581",
        "Satellite Number": 581,
        "Semi-Major Axis(m)": 7083131.272910544,
        "Time(s)": 87
    },
    {
        "Altitude(m)": 702950.5221581709,
        "Argument of Periapsis(deg)": 0.005275424549595694,
        "Eccentricity": 0.0,
        "Inclination(deg)": 45.0,
        "Latitude(deg)": 19.028652670899348,
        "Longitude(deg)": -170.4036827765879,
        "Mean Anomaly(deg)": 152.61440034199111,
        "RAAN(deg)": 129.9950201534299,
        "Satellite Name": "Constellation 1 581",
        "Satellite Number": 581,
        "Semi-Major Axis(m)": 7083131.272910544,
        "Time(s)": 88
    },
    {
        "Altitude(m)": 702947.582222027,
        "Argument of Periapsis(deg)": 0.0053353725558411,
        "Eccentricity": 0.0,
        "Inclination(deg)": 45.0,
        "Latitude(deg)": 18.988078802232764,
        "Longitude(deg)": -170.3598639357301,
        "Mean Anomaly(deg)": 152.67510148224105,
        "RAAN(deg)": 129.99496356426434,
        "Satellite Name": "Constellation 1 581",
        "Satellite Number": 581,
        "Semi-Major Axis(m)": 7083131.272910544,
        "Time(s)": 89
    },
    {
        "Altitude(m)": 702944.6569711783,
        "Argument of Periapsis(deg)": 0.005395320562086505,
        "Eccentricity": 0.0,
        "Inclination(deg)": 45.0,
        "Latitude(deg)": 18.947492376181465,
        "Longitude(deg)": -170.3160681497489,
        "Mean Anomaly(deg)": 152.7358026224909,
        "RAAN(deg)": 129.99490697509873,
        "Satellite Name": "Constellation 1 581",
        "Satellite Number": 581,
        "Semi-Major Axis(m)": 7083131.272910544,
        "Time(s)": 90
    },
    {
        "Altitude(m)": 702941.7464357832,
        "Argument of Periapsis(deg)": 0.00545526856833191,
        "Eccentricity": 0.0,
        "Inclination(deg)": 45.0,
        "Latitude(deg)": 18.90689342750888,
        "Longitude(deg)": -170.2722955293024,
        "Mean Anomaly(deg)": 152.79650376274077,
        "RAAN(deg)": 129.99485038593318,
        "Satellite Name": "Constellation 1 581",
        "Satellite Number": 581,
        "Semi-Major Axis(m)": 7083131.272910544,
        "Time(s)": 91
    },
    {
        "Altitude(m)": 702938.850645948,
        "Argument of Periapsis(deg)": 0.005515216574577317,
        "Eccentricity": 0.0,
        "Inclination(deg)": 45.0,
        "Latitude(deg)": 18.86628199093241,
        "Longitude(deg)": -170.22854601698143,
        "Mean Anomaly(deg)": 152.85720490299073,
        "RAAN(deg)": 129.9947937967676,
        "Satellite Name": "Constellation 1 581",
        "Satellite Number": 581,
        "Semi-Major Axis(m)": 7083131.272910544,
        "Time(s)": 92
    },
    {
        "Altitude(m)": 702935.9696317144,
        "Argument of Periapsis(deg)": 0.005575164580822722,
        "Eccentricity": 0.0,
        "Inclination(deg)": 45.0,
        "Latitude(deg)": 18.825658101124198,
        "Longitude(deg)": -170.18481955540707,
        "Mean Anomaly(deg)": 152.91790604324058,
        "RAAN(deg)": 129.99473720760204,
        "Satellite Name": "Constellation 1 581",
        "Satellite Number": 581,
        "Semi-Major Axis(m)": 7083131.272910544,
        "Time(s)": 93
    },
    {
        "Altitude(m)": 702933.1034230683,
        "Argument of Periapsis(deg)": 0.005635112587068129,
        "Eccentricity": 0.0,
        "Inclination(deg)": 45.0,
        "Latitude(deg)": 18.785021792710562,
        "Longitude(deg)": -170.14111608722956,
        "Mean Anomaly(deg)": 152.9786071834905,
        "RAAN(deg)": 129.9946806184365,
        "Satellite Name": "Constellation 1 581",
        "Satellite Number": 581,
        "Semi-Major Axis(m)": 7083131.272910544,
        "Time(s)": 94
    }
]